COSMOS 1408 DEB         
1 50032U 82092RU  26061.77346270  .00006541  00000+0  12978-3 0  9997
2 50032  82.5669 336.4188 0013679 285.1110  74.8626 15.46681970238402
COSMOS 1408 DEB         
1 50058U 82092SW  26061.81953377  .00048031  00000+0  38757-3 0  9995
2 50058  82.6144 345.1376 0014481 146.1123 214.1068 15.70528899240585
COSMOS 1408 DEB         
1 50404U 82092ADS 26061.65052279  .00133601  00000+0  33099-2 0  9994
2 50404  82.1979 132.1203 0127816 279.0529  79.6266 15.31870275224094
COSMOS 1408 DEB         
1 50621U 82092ALR 26061.77670545  .00035769  00000+0  40561-3 0  9999
2 50621  82.5719 350.5373 0022854 209.7934 150.2024 15.61869018234973
