[{"OBJECT_NAME":"COSMOS 1408 DEB","OBJECT_ID":"1982-092RU","EPOCH":"2026-03-02T18:33:47.177280","MEAN_MOTION":15.4668197,"ECCENTRICITY":0.0013679,"INCLINATION":82.5669,"RA_OF_ASC_NODE":336.4188,"ARG_OF_PERICENTER":285.111,"MEAN_ANOMALY":74.8626,"EPHEMERIS_TYPE":0,"CLASSIFICATION_TYPE":"U","NORAD_CAT_ID":50032,"ELEMENT_SET_NO":999,"REV_AT_EPOCH":23840,"BSTAR":0.00012978,"MEAN_MOTION_DOT":6.541e-5,"MEAN_MOTION_DDOT":0},{"OBJECT_NAME":"COSMOS 1408 DEB","OBJECT_ID":"1982-092SW","EPOCH":"2026-03-02T19:40:07.717728","MEAN_MOTION":15.70528899,"ECCENTRICITY":0.0014481,"INCLINATION":82.6144,"RA_OF_ASC_NODE":345.1376,"ARG_OF_PERICENTER":146.1123,"MEAN_ANOMALY":214.1068,"EPHEMERIS_TYPE":0,"CLASSIFICATION_TYPE":"U","NORAD_CAT_ID":50058,"ELEMENT_SET_NO":999,"REV_AT_EPOCH":24058,"BSTAR":0.00038757,"MEAN_MOTION_DOT":0.00048031,"MEAN_MOTION_DDOT":0},{"OBJECT_NAME":"COSMOS 1408 DEB","OBJECT_ID":"1982-092ADS","EPOCH":"2026-03-02T15:36:45.169056","MEAN_MOTION":15.31870275,"ECCENTRICITY":0.0127816,"INCLINATION":82.1979,"RA_OF_ASC_NODE":132.1203,"ARG_OF_PERICENTER":279.0529,"MEAN_ANOMALY":79.6266,"EPHEMERIS_TYPE":0,"CLASSIFICATION_TYPE":"U","NORAD_CAT_ID":50404,"ELEMENT_SET_NO":999,"REV_AT_EPOCH":22409,"BSTAR":0.0033099,"MEAN_MOTION_DOT":0.00133601,"MEAN_MOTION_DDOT":0},{"OBJECT_NAME":"COSMOS 1408 DEB","OBJECT_ID":"1982-092ALR","EPOCH":"2026-03-02T18:38:27.350880","MEAN_MOTION":15.61869018,"ECCENTRICITY":0.0022854,"INCLINATION":82.5719,"RA_OF_ASC_NODE":350.5373,"ARG_OF_PERICENTER":209.7934,"MEAN_ANOMALY":150.2024,"EPHEMERIS_TYPE":0,"CLASSIFICATION_TYPE":"U","NORAD_CAT_ID":50621,"ELEMENT_SET_NO":999,"REV_AT_EPOCH":23497,"BSTAR":0.00040561,"MEAN_MOTION_DOT":0.00035769,"MEAN_MOTION_DDOT":0}]
